SL-8 R/B                
1 11574U 79089B   26079.49618924  .00000154  00000+0  54624-4 0  9992
2 11574  74.0673  71.0372 0016986 242.5200 117.4230 14.42356794437661
SL-14 R/B               
1 11672U 80005B   26079.33163779  .00000459  00000+0  43855-4 0  9999
2 11672  82.5124 297.1403 0016960 124.7812 235.5007 14.90941572478074
SL-8 R/B                
1 12139U 81003B   26078.99953647  .00017956  00000+0  45513-3 0  9991
2 12139  82.9357 280.4886 0261431 142.7040 219.2671 15.11391095316231
SL-3 R/B                
1 12465U 81046B   26079.49061142  .00008424  00000+0  19415-3 0  9998
2 12465  81.2279 276.7701 0018708 344.5158  15.5510 15.42241141440092
SL-3 R/B                
1 12904U 81103B   26079.62392289  .00005652  00000+0  24966-3 0  9991
2 12904  81.1606 200.6055 0012433 247.1399 112.8520 15.21499897974897
SL-3 R/B                
1 13068U 82013B   26079.56178833  .00003599  00000+0  15489-3 0  9992
2 13068  81.1749 148.0286 0023219 141.4225 218.8672 15.22113028406004
SL-3 R/B                
1 13154U 82039B   26079.58978289  .00002305  00000+0  13857-3 0  9992
2 13154  81.1575 203.3942 0029182 288.6331  71.1726 15.10139992383287
SL-3 R/B                
1 13403U 82079B   26079.55972881  .00006215  00000+0  24621-3 0  9997
2 13403  81.1490 180.2432 0025398 128.7637 231.5871 15.24944729379358
SL-14 R/B               
1 13553U 82092B   26079.40302844  .00000372  00000+0  39070-4 0  9991
2 13553  82.5673 131.3784 0018751 265.2216 105.2121 14.86675625330528
SL-3 R/B                
1 13819U 83010B   26079.17777978  .00010243  00000+0  20329-3 0  9999
2 13819  81.1062 349.3876 0016971  16.3357 343.8431 15.46696803359563
SL-3 R/B                
1 14208U 83075B   26079.54852087  .00010437  00000+0  27349-3 0  9993
2 14208  97.6138  84.5387 0021291 185.4757 174.6258 15.38656805331825
COSMOS 1536             
1 14699U 84013A   26079.42302924  .00004557  00000+0  18671-3 0  9991
2 14699  82.5412  97.1768 0012665 240.6493 119.3480 15.23955665274252
SL-14 R/B               
1 14820U 84027B   26079.39975028  .00000439  00000+0  47410-4 0  9998
2 14820  82.5399 234.9661 0016651 300.5096  59.4476 14.85987123249228
SL-8 R/B                
1 15483U 85006B   26079.43685402  .00000298  00000+0  10732-3 0  9990
2 15483  74.0438 241.3706 0018012 156.2040 234.3135 14.37790912155579
SL-12 R/B(2)            
1 15772U 85042D   26079.39619677  .00000017  00000+0  29076-4 0  9998
2 15772  71.1070  65.1066 0032937 110.4301 359.2036 14.21985197115910
SL-14 R/B               
1 15945U 85069B   26079.31396521  .00000446  00000+0  47606-4 0  9996
2 15945  82.5300  14.9449 0019425 152.8819 207.3417 14.86444467174419
SL-16 R/B               
1 16182U 85097B   26079.44438904  .00000281  00000+0  16459-3 0  9995
2 16182  71.0013 117.9125 0009602 246.7937 210.4999 14.16600537 88758
