[{"OBJECT_NAME":"SL-8 R/B","OBJECT_ID":"1979-089B","EPOCH":"2026-03-20T11:54:30.750336","MEAN_MOTION":14.42356794,"ECCENTRICITY":0.00169865,"INCLINATION":74.0673,"RA_OF_ASC_NODE":71.0372,"ARG_OF_PERICENTER":242.52,"MEAN_ANOMALY":117.423,"EPHEMERIS_TYPE":0,"CLASSIFICATION_TYPE":"U","NORAD_CAT_ID":11574,"ELEMENT_SET_NO":999,"REV_AT_EPOCH":43766,"BSTAR":5.4623629e-5,"MEAN_MOTION_DOT":1.54e-6,"MEAN_MOTION_DDOT":0},{"OBJECT_NAME":"SL-14 R/B","OBJECT_ID":"1980-005B","EPOCH":"2026-03-20T07:57:33.505056","MEAN_MOTION":14.90941572,"ECCENTRICITY":0.00169606,"INCLINATION":82.5124,"RA_OF_ASC_NODE":297.1403,"ARG_OF_PERICENTER":124.7812,"MEAN_ANOMALY":235.5007,"EPHEMERIS_TYPE":0,"CLASSIFICATION_TYPE":"U","NORAD_CAT_ID":11672,"ELEMENT_SET_NO":999,"REV_AT_EPOCH":47807,"BSTAR":4.385498e-5,"MEAN_MOTION_DOT":4.59e-6,"MEAN_MOTION_DDOT":0},{"OBJECT_NAME":"SL-8 R/B","OBJECT_ID":"1981-003B","EPOCH":"2026-03-19T23:59:19.951008","MEAN_MOTION":15.11391095,"ECCENTRICITY":0.02614312,"INCLINATION":82.9357,"RA_OF_ASC_NODE":280.4886,"ARG_OF_PERICENTER":142.704,"MEAN_ANOMALY":219.2671,"EPHEMERIS_TYPE":0,"CLASSIFICATION_TYPE":"U","NORAD_CAT_ID":12139,"ELEMENT_SET_NO":999,"REV_AT_EPOCH":31623,"BSTAR":0.00045513345,"MEAN_MOTION_DOT":0.00017956,"MEAN_MOTION_DDOT":0},{"OBJECT_NAME":"SL-3 R/B","OBJECT_ID":"1981-046B","EPOCH":"2026-03-20T11:46:28.826688","MEAN_MOTION":15.42241141,"ECCENTRICITY":0.00187086,"INCLINATION":81.2279,"RA_OF_ASC_NODE":276.7701,"ARG_OF_PERICENTER":344.5158,"MEAN_ANOMALY":15.551,"EPHEMERIS_TYPE":0,"CLASSIFICATION_TYPE":"U","NORAD_CAT_ID":12465,"ELEMENT_SET_NO":999,"REV_AT_EPOCH":44009,"BSTAR":0.00019414996,"MEAN_MOTION_DOT":8.424e-5,"MEAN_MOTION_DDOT":0},{"OBJECT_NAME":"SL-3 R/B","OBJECT_ID":"1981-103B","EPOCH":"2026-03-20T14:58:26.937696","MEAN_MOTION":15.21499897,"ECCENTRICITY":0.00124335,"INCLINATION":81.1606,"RA_OF_ASC_NODE":200.6055,"ARG_OF_PERICENTER":247.1399,"MEAN_ANOMALY":112.852,"EPHEMERIS_TYPE":0,"CLASSIFICATION_TYPE":"U","NORAD_CAT_ID":12904,"ELEMENT_SET_NO":999,"REV_AT_EPOCH":97489,"BSTAR":0.00024966125,"MEAN_MOTION_DOT":5.652e-5,"MEAN_MOTION_DDOT":0},{"OBJECT_NAME":"SL-3 R/B","OBJECT_ID":"1982-013B","EPOCH":"2026-03-20T13:28:58.511712","MEAN_MOTION":15.22113028,"ECCENTRICITY":0.00232197,"INCLINATION":81.1749,"RA_OF_ASC_NODE":148.0286,"ARG_OF_PERICENTER":141.4225,"MEAN_ANOMALY":218.8672,"EPHEMERIS_TYPE":0,"CLASSIFICATION_TYPE":"U","NORAD_CAT_ID":13068,"ELEMENT_SET_NO":999,"REV_AT_EPOCH":40600,"BSTAR":0.00015488873,"MEAN_MOTION_DOT":3.599e-5,"MEAN_MOTION_DDOT":0},{"OBJECT_NAME":"SL-3 R/B","OBJECT_ID":"1982-039B","EPOCH":"2026-03-20T14:09:17.241696","MEAN_MOTION":15.10139992,"ECCENTRICITY":0.00291827,"INCLINATION":81.1575,"RA_OF_ASC_NODE":203.3942,"ARG_OF_PERICENTER":288.6331,"MEAN_ANOMALY":71.1726,"EPHEMERIS_TYPE":0,"CLASSIFICATION_TYPE":"U","NORAD_CAT_ID":13154,"ELEMENT_SET_NO":999,"REV_AT_EPOCH":38328,"BSTAR":0.00013857088,"MEAN_MOTION_DOT":2.305e-5,"MEAN_MOTION_DDOT":0},{"OBJECT_NAME":"SL-3 R/B","OBJECT_ID":"1982-079B","EPOCH":"2026-03-20T13:26:00.569184","MEAN_MOTION":15.24944729,"ECCENTRICITY":0.0025398,"INCLINATION":81.149,"RA_OF_ASC_NODE":180.2432,"ARG_OF_PERICENTER":128.7637,"MEAN_ANOMALY":231.5871,"EPHEMERIS_TYPE":0,"CLASSIFICATION_TYPE":"U","NORAD_CAT_ID":13403,"ELEMENT_SET_NO":999,"REV_AT_EPOCH":37935,"BSTAR":0.0002462084,"MEAN_MOTION_DOT":6.215e-5,"MEAN_MOTION_DDOT":0},{"OBJECT_NAME":"SL-14 R/B","OBJECT_ID":"1982-092B","EPOCH":"2026-03-20T09:40:21.657216","MEAN_MOTION":14.86675625,"ECCENTRICITY":0.00187518,"INCLINATION":82.5673,"RA_OF_ASC_NODE":131.3784,"ARG_OF_PERICENTER":265.2216,"MEAN_ANOMALY":105.2121,"EPHEMERIS_TYPE":0,"CLASSIFICATION_TYPE":"U","NORAD_CAT_ID":13553,"ELEMENT_SET_NO":999,"REV_AT_EPOCH":33052,"BSTAR":3.9069528e-5,"MEAN_MOTION_DOT":3.72e-6,"MEAN_MOTION_DDOT":0},{"OBJECT_NAME":"SL-3 R/B","OBJECT_ID":"1983-010B","EPOCH":"2026-03-20T04:16:00.172992","MEAN_MOTION":15.46696803,"ECCENTRICITY":0.00169711,"INCLINATION":81.1062,"RA_OF_ASC_NODE":349.3876,"ARG_OF_PERICENTER":16.3357,"MEAN_ANOMALY":343.8431,"EPHEMERIS_TYPE":0,"CLASSIFICATION_TYPE":"U","NORAD_CAT_ID":13819,"ELEMENT_SET_NO":999,"REV_AT_EPOCH":35956,"BSTAR":0.00020329031,"MEAN_MOTION_DOT":0.00010243,"MEAN_MOTION_DDOT":0},{"OBJECT_NAME":"SL-3 R/B","OBJECT_ID":"1983-075B","EPOCH":"2026-03-20T13:09:52.203168","MEAN_MOTION":15.38656805,"ECCENTRICITY":0.00212919,"INCLINATION":97.6138,"RA_OF_ASC_NODE":84.5387,"ARG_OF_PERICENTER":185.4757,"MEAN_ANOMALY":174.6258,"EPHEMERIS_TYPE":0,"CLASSIFICATION_TYPE":"U","NORAD_CAT_ID":14208,"ELEMENT_SET_NO":999,"REV_AT_EPOCH":33182,"BSTAR":0.00027349111,"MEAN_MOTION_DOT":0.00010437,"MEAN_MOTION_DDOT":0},{"OBJECT_NAME":"COSMOS 1536","OBJECT_ID":"1984-013A","EPOCH":"2026-03-20T10:09:09.726336","MEAN_MOTION":15.23955665,"ECCENTRICITY":0.00126654,"INCLINATION":82.5412,"RA_OF_ASC_NODE":97.1768,"ARG_OF_PERICENTER":240.6493,"MEAN_ANOMALY":119.348,"EPHEMERIS_TYPE":0,"CLASSIFICATION_TYPE":"U","NORAD_CAT_ID":14699,"ELEMENT_SET_NO":999,"REV_AT_EPOCH":27425,"BSTAR":0.00018671303,"MEAN_MOTION_DOT":4.557e-5,"MEAN_MOTION_DDOT":0},{"OBJECT_NAME":"SL-14 R/B","OBJECT_ID":"1984-027B","EPOCH":"2026-03-20T09:35:38.424192","MEAN_MOTION":14.85987123,"ECCENTRICITY":0.00166518,"INCLINATION":82.5399,"RA_OF_ASC_NODE":234.9661,"ARG_OF_PERICENTER":300.5096,"MEAN_ANOMALY":59.4476,"EPHEMERIS_TYPE":0,"CLASSIFICATION_TYPE":"U","NORAD_CAT_ID":14820,"ELEMENT_SET_NO":999,"REV_AT_EPOCH":24922,"BSTAR":4.7410103e-5,"MEAN_MOTION_DOT":4.39e-6,"MEAN_MOTION_DDOT":0},{"OBJECT_NAME":"SL-8 R/B","OBJECT_ID":"1985-006B","EPOCH":"2026-03-20T10:29:04.187328","MEAN_MOTION":14.37790912,"ECCENTRICITY":0.00180121,"INCLINATION":74.0438,"RA_OF_ASC_NODE":241.3706,"ARG_OF_PERICENTER":156.204,"MEAN_ANOMALY":234.3135,"EPHEMERIS_TYPE":0,"CLASSIFICATION_TYPE":"U","NORAD_CAT_ID":15483,"ELEMENT_SET_NO":999,"REV_AT_EPOCH":15557,"BSTAR":0.00010732035,"MEAN_MOTION_DOT":2.98e-6,"MEAN_MOTION_DDOT":0},{"OBJECT_NAME":"SL-12 R/B(2)","OBJECT_ID":"1985-042D","EPOCH":"2026-03-20T09:30:31.400928","MEAN_MOTION":14.21985197,"ECCENTRICITY":0.0032937,"INCLINATION":71.107,"RA_OF_ASC_NODE":65.1066,"ARG_OF_PERICENTER":110.4301,"MEAN_ANOMALY":359.2036,"EPHEMERIS_TYPE":0,"CLASSIFICATION_TYPE":"U","NORAD_CAT_ID":15772,"ELEMENT_SET_NO":999,"REV_AT_EPOCH":11591,"BSTAR":2.9076e-5,"MEAN_MOTION_DOT":1.7e-7,"MEAN_MOTION_DDOT":0},{"OBJECT_NAME":"SL-14 R/B","OBJECT_ID":"1985-069B","EPOCH":"2026-03-20T07:32:06.594144","MEAN_MOTION":14.86444467,"ECCENTRICITY":0.0019425,"INCLINATION":82.53,"RA_OF_ASC_NODE":14.9449,"ARG_OF_PERICENTER":152.8819,"MEAN_ANOMALY":207.3417,"EPHEMERIS_TYPE":0,"CLASSIFICATION_TYPE":"U","NORAD_CAT_ID":15945,"ELEMENT_SET_NO":999,"REV_AT_EPOCH":17441,"BSTAR":4.7606e-5,"MEAN_MOTION_DOT":4.46e-6,"MEAN_MOTION_DDOT":0},{"OBJECT_NAME":"SL-16 R/B","OBJECT_ID":"1985-097B","EPOCH":"2026-03-20T10:39:55.213056","MEAN_MOTION":14.16600537,"ECCENTRICITY":0.00096023,"INCLINATION":71.0013,"RA_OF_ASC_NODE":117.9125,"ARG_OF_PERICENTER":246.7937,"MEAN_ANOMALY":210.4999,"EPHEMERIS_TYPE":0,"CLASSIFICATION_TYPE":"U","NORAD_CAT_ID":16182,"ELEMENT_SET_NO":999,"REV_AT_EPOCH":8875,"BSTAR":0.00016458715,"MEAN_MOTION_DOT":2.81e-6,"MEAN_MOTION_DDOT":0}]
